GLOBALSTAR M075         
1 37192U 10054E   25132.86767012 -.00000093  00000+0  61413-4 0  9993
2 37192  51.9951 289.0766 0000727 107.0598  45.2611 12.62264651671387
GLOBALSTAR M073         
1 37193U 10054F   25132.63032991 -.00000064  00000+0  22468-3 0  9994
2 37193  52.0048 203.5927 0000329 162.2468 350.0592 12.62271387673396
GLOBALSTAR M083         
1 37739U 11033A   25132.80597492 -.00000106  00000+0 -15056-4 0  9993
2 37739  51.9837 151.8363 0000259 126.8676  44.2311 12.62263713642384
GLOBALSTAR M088         
1 37740U 11033B   25132.82905803 -.00000114  00000+0 -54998-4 0  9993
2 37740  51.9745  57.2829 0000616  68.9855 328.2842 12.62265929637932
GLOBALSTAR M091         
1 37741U 11033C   25132.85140045 -.00000086  00000+0  10184-3 0  9991
2 37741  52.0021  20.7098 0000919  93.1998 344.8214 12.62267773638723
GLOBALSTAR M085         
1 37742U 11033D   25133.01455774 -.00000095  00000+0  47990-4 0  9995
2 37742  51.9881 331.2835 0000971 105.7101  54.3898 12.62268320639742
GLOBALSTAR M081         
1 37743U 11033E   25132.87013461 -.00000081  00000+0  12514-3 0  9990
2 37743  51.9974 334.4896 0000767 109.1198 353.6623 12.62263727639382
GLOBALSTAR M089         
1 37744U 11033F   25132.73147767 -.00000105  00000+0 -68671-5 0  9998
2 37744  51.9933 289.1443 0000531 100.1249 273.4387 12.62269744640214
